[{"OBJECT_NAME":"STARLINK-32665","OBJECT_ID":"2024-229M","EPOCH":"2026-03-09T13:47:22.776288","MEAN_MOTION":15.27580721,"ECCENTRICITY":0.0001599,"INCLINATION":42.9995,"RA_OF_ASC_NODE":271.3734,"ARG_OF_PERICENTER":246.8294,"MEAN_ANOMALY":113.2389,"EPHEMERIS_TYPE":0,"CLASSIFICATION_TYPE":"U","NORAD_CAT_ID":62203,"ELEMENT_SET_NO":999,"REV_AT_EPOCH":7054,"BSTAR":0.00096895,"MEAN_MOTION_DOT":0.00026498,"MEAN_MOTION_DDOT":0},{"OBJECT_NAME":"FLOCK 4G-22","OBJECT_ID":"2025-009AN","EPOCH":"2026-03-09T22:51:40.689792","MEAN_MOTION":15.2720903,"ECCENTRICITY":8.959e-5,"INCLINATION":97.4046,"RA_OF_ASC_NODE":151.5884,"ARG_OF_PERICENTER":284.1963,"MEAN_ANOMALY":75.9176,"EPHEMERIS_TYPE":0,"CLASSIFICATION_TYPE":"U","NORAD_CAT_ID":62645,"ELEMENT_SET_NO":999,"REV_AT_EPOCH":6376,"BSTAR":0.00049035383,"MEAN_MOTION_DOT":0.00013013,"MEAN_MOTION_DDOT":0}]
